CCSDS_OMM_VERS = 2.0
CREATION_DATE  = 
ORIGINATOR     = 

OBJECT_NAME    = STARLINK-35581
OBJECT_ID      = 2025-262Z
CENTER_NAME    = EARTH
REF_FRAME      = TEME
TIME_SYSTEM    = UTC
MEAN_ELEMENT_THEORY = SGP/SGP4

EPOCH          = 2025-12-09T10:47:05.458272
MEAN_MOTION    = 15.50587692
ECCENTRICITY   = .0001741
INCLINATION    = 43.0004
RA_OF_ASC_NODE = 90.2695
ARG_OF_PERICENTER = 212.7857
MEAN_ANOMALY   = 147.2895

EPHEMERIS_TYPE = 0
CLASSIFICATION_TYPE = U
NORAD_CAT_ID   = 66479
ELEMENT_SET_NO = 999
REV_AT_EPOCH   = 505
BSTAR          = .25118E-2
MEAN_MOTION_DOT = .149916E-2
MEAN_MOTION_DDOT = 0

CCSDS_OMM_VERS = 2.0
CREATION_DATE  = 
ORIGINATOR     = 

OBJECT_NAME    = STARLINK-35670
OBJECT_ID      = 2025-262AA
CENTER_NAME    = EARTH
REF_FRAME      = TEME
TIME_SYSTEM    = UTC
MEAN_ELEMENT_THEORY = SGP/SGP4

EPOCH          = 2025-12-09T10:45:37.396800
MEAN_MOTION    = 15.50615570
ECCENTRICITY   = .0002961
INCLINATION    = 43.0006
RA_OF_ASC_NODE = 90.2614
ARG_OF_PERICENTER = 303.4007
MEAN_ANOMALY   = 56.6570

EPHEMERIS_TYPE = 0
CLASSIFICATION_TYPE = U
NORAD_CAT_ID   = 66480
ELEMENT_SET_NO = 999
REV_AT_EPOCH   = 505
BSTAR          = .16375E-2
MEAN_MOTION_DOT = .97054E-3
MEAN_MOTION_DDOT = 0

CCSDS_OMM_VERS = 2.0
CREATION_DATE  = 
ORIGINATOR     = 

OBJECT_NAME    = STARLINK-35698
OBJECT_ID      = 2025-262AB
CENTER_NAME    = EARTH
REF_FRAME      = TEME
TIME_SYSTEM    = UTC
MEAN_ELEMENT_THEORY = SGP/SGP4

EPOCH          = 2025-12-09T10:45:07.545600
MEAN_MOTION    = 15.50616477
ECCENTRICITY   = .0001493
INCLINATION    = 43.0006
RA_OF_ASC_NODE = 90.2581
ARG_OF_PERICENTER = 246.0489
MEAN_ANOMALY   = 114.0215

EPHEMERIS_TYPE = 0
CLASSIFICATION_TYPE = U
NORAD_CAT_ID   = 66481
ELEMENT_SET_NO = 999
REV_AT_EPOCH   = 505
BSTAR          = .26014E-2
MEAN_MOTION_DOT = .155546E-2
MEAN_MOTION_DDOT = 0

CCSDS_OMM_VERS = 2.0
CREATION_DATE  = 
ORIGINATOR     = 

OBJECT_NAME    = STARLINK-35648
OBJECT_ID      = 2025-262AC
CENTER_NAME    = EARTH
REF_FRAME      = TEME
TIME_SYSTEM    = UTC
MEAN_ELEMENT_THEORY = SGP/SGP4

EPOCH          = 2025-12-09T10:44:37.990752
MEAN_MOTION    = 15.50621967
ECCENTRICITY   = .000135
INCLINATION    = 43.0003
RA_OF_ASC_NODE = 90.2550
ARG_OF_PERICENTER = 250.4527
MEAN_ANOMALY   = 109.6187

EPHEMERIS_TYPE = 0
CLASSIFICATION_TYPE = U
NORAD_CAT_ID   = 66482
ELEMENT_SET_NO = 999
REV_AT_EPOCH   = 489
BSTAR          = .29108E-2
MEAN_MOTION_DOT = .174547E-2
MEAN_MOTION_DDOT = 0

CCSDS_OMM_VERS = 2.0
CREATION_DATE  = 
ORIGINATOR     = 

OBJECT_NAME    = STARLINK-35654
OBJECT_ID      = 2025-262AD
CENTER_NAME    = EARTH
REF_FRAME      = TEME
TIME_SYSTEM    = UTC
MEAN_ELEMENT_THEORY = SGP/SGP4

EPOCH          = 2025-12-09T10:44:08.468736
MEAN_MOTION    = 15.50599226
ECCENTRICITY   = .0001248
INCLINATION    = 43.0001
RA_OF_ASC_NODE = 90.2518
ARG_OF_PERICENTER = 291.9992
MEAN_ANOMALY   = 68.0736

EPHEMERIS_TYPE = 0
CLASSIFICATION_TYPE = U
NORAD_CAT_ID   = 66483
ELEMENT_SET_NO = 999
REV_AT_EPOCH   = 505
BSTAR          = .16829E-2
MEAN_MOTION_DOT = .99727E-3
MEAN_MOTION_DDOT = 0

CCSDS_OMM_VERS = 2.0
CREATION_DATE  = 
ORIGINATOR     = 

OBJECT_NAME    = STARLINK-35371
OBJECT_ID      = 2025-262AE
CENTER_NAME    = EARTH
REF_FRAME      = TEME
TIME_SYSTEM    = UTC
MEAN_ELEMENT_THEORY = SGP/SGP4

EPOCH          = 2025-12-09T10:43:37.777728
MEAN_MOTION    = 15.50626740
ECCENTRICITY   = .0009086
INCLINATION    = 42.9996
RA_OF_ASC_NODE = 90.2494
ARG_OF_PERICENTER = 144.0106
MEAN_ANOMALY   = 216.1368

EPHEMERIS_TYPE = 0
CLASSIFICATION_TYPE = U
NORAD_CAT_ID   = 66484
ELEMENT_SET_NO = 999
REV_AT_EPOCH   = 505
BSTAR          = .11012E-2
MEAN_MOTION_DOT = .65005E-3
MEAN_MOTION_DDOT = 0

CCSDS_OMM_VERS = 2.0
CREATION_DATE  = 
ORIGINATOR     = 

OBJECT_NAME    = STARLINK-34774
OBJECT_ID      = 2025-263A
CENTER_NAME    = EARTH
REF_FRAME      = TEME
TIME_SYSTEM    = UTC
MEAN_ELEMENT_THEORY = SGP/SGP4

EPOCH          = 2025-12-09T12:00:02.000160
MEAN_MOTION    = 15.47851078
ECCENTRICITY   = .000099
INCLINATION    = 43.0003
RA_OF_ASC_NODE = 144.1274
ARG_OF_PERICENTER = 265.0389
MEAN_ANOMALY   = 267.8820

EPHEMERIS_TYPE = 0
CLASSIFICATION_TYPE = U
NORAD_CAT_ID   = 66485
ELEMENT_SET_NO = 999
REV_AT_EPOCH   = 511
BSTAR          = -.44237E-1
MEAN_MOTION_DOT = -.2091961E-1
MEAN_MOTION_DDOT = 0

CCSDS_OMM_VERS = 2.0
CREATION_DATE  = 
ORIGINATOR     = 

OBJECT_NAME    = STARLINK-34844
OBJECT_ID      = 2025-263B
CENTER_NAME    = EARTH
REF_FRAME      = TEME
TIME_SYSTEM    = UTC
MEAN_ELEMENT_THEORY = SGP/SGP4

EPOCH          = 2025-12-09T12:00:02.000160
MEAN_MOTION    = 15.50553178
ECCENTRICITY   = .0001509
INCLINATION    = 43.0003
RA_OF_ASC_NODE = 144.1144
ARG_OF_PERICENTER = 270.3249
MEAN_ANOMALY   = 267.5693

EPHEMERIS_TYPE = 0
CLASSIFICATION_TYPE = U
NORAD_CAT_ID   = 66486
ELEMENT_SET_NO = 999
REV_AT_EPOCH   = 506
BSTAR          = -.17612E-3
MEAN_MOTION_DOT = -.1065E-3
MEAN_MOTION_DDOT = 0

CCSDS_OMM_VERS = 2.0
CREATION_DATE  = 
ORIGINATOR     = 

OBJECT_NAME    = STARLINK-34733
OBJECT_ID      = 2025-263C
CENTER_NAME    = EARTH
REF_FRAME      = TEME
TIME_SYSTEM    = UTC
MEAN_ELEMENT_THEORY = SGP/SGP4

EPOCH          = 2025-12-09T06:00:02.000160
MEAN_MOTION    = 15.50684599
ECCENTRICITY   = .00014357
INCLINATION    = 43.0007
RA_OF_ASC_NODE = 145.5711
ARG_OF_PERICENTER = 268.7624
MEAN_ANOMALY   = 313.8190

EPHEMERIS_TYPE = 0
CLASSIFICATION_TYPE = U
NORAD_CAT_ID   = 66487
ELEMENT_SET_NO = 999
REV_AT_EPOCH   = 507
BSTAR          = -.38689108E-2
MEAN_MOTION_DOT = -.221836E-2
MEAN_MOTION_DDOT = 0

CCSDS_OMM_VERS = 2.0
CREATION_DATE  = 
ORIGINATOR     = 

OBJECT_NAME    = STARLINK-35515
OBJECT_ID      = 2025-263D
CENTER_NAME    = EARTH
REF_FRAME      = TEME
TIME_SYSTEM    = UTC
MEAN_ELEMENT_THEORY = SGP/SGP4

EPOCH          = 2025-12-09T12:00:02.000160
MEAN_MOTION    = 15.50598526
ECCENTRICITY   = .000137
INCLINATION    = 43.0003
RA_OF_ASC_NODE = 144.1049
ARG_OF_PERICENTER = 266.0176
MEAN_ANOMALY   = 275.6982

EPHEMERIS_TYPE = 0
CLASSIFICATION_TYPE = U
NORAD_CAT_ID   = 66488
ELEMENT_SET_NO = 999
REV_AT_EPOCH   = 511
BSTAR          = -.12978E-2
MEAN_MOTION_DOT = -.75797E-3
MEAN_MOTION_DDOT = 0

CCSDS_OMM_VERS = 2.0
CREATION_DATE  = 
ORIGINATOR     = 

OBJECT_NAME    = STARLINK-35696
OBJECT_ID      = 2025-263E
CENTER_NAME    = EARTH
REF_FRAME      = TEME
TIME_SYSTEM    = UTC
MEAN_ELEMENT_THEORY = SGP/SGP4

EPOCH          = 2025-12-09T12:00:02.000160
MEAN_MOTION    = 15.50550757
ECCENTRICITY   = .0001593
INCLINATION    = 43.0003
RA_OF_ASC_NODE = 144.1002
ARG_OF_PERICENTER = 269.0208
MEAN_ANOMALY   = 274.6113

EPHEMERIS_TYPE = 0
CLASSIFICATION_TYPE = U
NORAD_CAT_ID   = 66489
ELEMENT_SET_NO = 999
REV_AT_EPOCH   = 511
BSTAR          = .50546E-3
MEAN_MOTION_DOT = .29393E-3
MEAN_MOTION_DDOT = 0

CCSDS_OMM_VERS = 2.0
CREATION_DATE  = 
ORIGINATOR     = 

OBJECT_NAME    = STARLINK-35693
OBJECT_ID      = 2025-263F
CENTER_NAME    = EARTH
REF_FRAME      = TEME
TIME_SYSTEM    = UTC
MEAN_ELEMENT_THEORY = SGP/SGP4

EPOCH          = 2025-12-09T12:00:02.000160
MEAN_MOTION    = 15.50560794
ECCENTRICITY   = .0001588
INCLINATION    = 43.0003
RA_OF_ASC_NODE = 144.0957
ARG_OF_PERICENTER = 268.2336
MEAN_ANOMALY   = 277.3102

EPHEMERIS_TYPE = 0
CLASSIFICATION_TYPE = U
NORAD_CAT_ID   = 66490
ELEMENT_SET_NO = 999
REV_AT_EPOCH   = 511
BSTAR          = .35722E-3
MEAN_MOTION_DOT = .20656E-3
MEAN_MOTION_DDOT = 0

