STARLINK-35581          
1 66479U 25262Z   25343.44936873  .00149916  00000+0  25118-2 0  9998
2 66479  43.0004  90.2695 0001741 212.7857 147.2895 15.50587692  5055
STARLINK-35670          
1 66480U 25262AA  25343.44834950  .00097054  00000+0  16375-2 0  9993
2 66480  43.0006  90.2614 0002961 303.4007  56.6570 15.50615570  5050
STARLINK-35698          
1 66481U 25262AB  25343.44800400  .00155546  00000+0  26014-2 0  9999
2 66481  43.0006  90.2581 0001493 246.0489 114.0215 15.50616477  5051
STARLINK-35648          
1 66482U 25262AC  25343.44766193  .00174547  00000+0  29108-2 0  9999
2 66482  43.0003  90.2550 0001350 250.4527 109.6187 15.50621967  4898
STARLINK-35654          
1 66483U 25262AD  25343.44732024  .00099727  00000+0  16829-2 0  9998
2 66483  43.0001  90.2518 0001248 291.9992  68.0736 15.50599226  5052
STARLINK-35371          
1 66484U 25262AE  25343.44696502  .00065005  00000+0  11012-2 0  9990
2 66484  42.9996  90.2494 0009086 144.0106 216.1368 15.50626740  5059
STARLINK-34774          
1 66485U 25263A   25343.50002315 -.02091961  00000+0 -44237-1 0  9990
2 66485  43.0003 144.1274 0000990 265.0389 267.8820 15.47851078  5111
STARLINK-34844          
1 66486U 25263B   25343.50002315 -.00010650  00000+0 -17612-3 0  9994
2 66486  43.0003 144.1144 0001509 270.3249 267.5693 15.50553178  5062
STARLINK-34733          
1 66487U 25263C   25343.25002315 -.00221836  00000+0 -38689-2 0  9993
2 66487  43.0007 145.5711 0001435 268.7624 313.8190 15.50684599  5078
STARLINK-35515          
1 66488U 25263D   25343.50002315 -.00075797  00000+0 -12978-2 0  9998
2 66488  43.0003 144.1049 0001370 266.0176 275.6982 15.50598526  5118
STARLINK-35696          
1 66489U 25263E   25343.50002315  .00029393  00000+0  50546-3 0  9992
2 66489  43.0003 144.1002 0001593 269.0208 274.6113 15.50550757  5113
STARLINK-35693          
1 66490U 25263F   25343.50002315  .00020656  00000+0  35722-3 0  9996
2 66490  43.0003 144.0957 0001588 268.2336 277.3102 15.50560794  5110
